0 COSMOS 252 DEB *
1 03690U 68097AH  13281.97336869  .00000350  00000-0  39306-3 0  1358
2 03690 062.3390 152.2522 0819284 049.8184 047.1800 12.86108678 93939
0 COSMOS 252 DEB *
1 03690U 68097AH  13282.98563745  .00000376  00000-0  41564-3 0  1363
2 03690 062.3388 149.7928 0819358 050.0188 053.9757 12.86109983 94068
0 COSMOS 252 DEB *
1 03690U 68097AH  13283.50895470  .00000622  00000-0  56367-3 0  1377
2 03690 062.3405 148.5224 0818334 050.1603 316.8975 12.86108542 94131
0 COSMOS 252 DEB *
1 03690U 68097AH  13284.14714243  .00000422  00000-0  45716-3 0  1370
2 03690 062.3386 146.9706 0819423 050.2478 031.7401 12.86111131 94211
0 COSMOS 252 DEB *
1 03690U 68097AH  13285.70912361  .00000366  00000-0  40683-3 0  1380
2 03690 062.3384 143.1756 0819516 050.5545 063.7171 12.86112577 94410
0 COSMOS 252 DEB *
1 03690U 68097AH  13286.78845251  .00000406  00000-0  44233-3 0  1393
2 03690 062.3382 140.5531 0819581 050.7671 021.0187 12.86113579 94556
0 COSMOS 252 DEB *
1 03690U 68097AH  13287.80005196  .00000432  00000-0  46567-3 0  1406
2 03690 062.3381 138.0951 0819625 050.9661 024.7336 12.86115665 94681
0 COSMOS 252 DEB *
1 03690U 68097AH  13288.81245781  .00000445  00000-0  47798-3 0  1416
2 03690 062.3381 135.6352 0819672 051.1662 032.1908 12.86117458 94810
0 COSMOS 252 DEB *
1 03690U 68097AH  13289.82347067  .00000370  00000-0  41030-3 0  1429
2 03690 062.3381 133.1786 0819714 051.3643 033.2041 12.86119009 94940
0 COSMOS 252 DEB *
1 03690U 68097AH  13290.58426296  .00000718  00000-0  64791-3 0  1443
2 03690 062.3391 131.3315 0819363 051.5300 315.6830 12.86118879 95040
0 COSMOS 252 DEB *
1 03690U 68097AH  13291.06659959  .00000367  00000-0  40693-3 0  1435
2 03690 062.3381 130.1579 0819760 051.6122 028.9271 12.86120496 95100
0 COSMOS 252 DEB *
1 03690U 68097AH  13292.07795464  .00000393  00000-0  43016-3 0  1441
2 03690 062.3382 127.7005 0819794 051.8116 031.5370 12.86121436 95238
0 COSMOS 252 DEB *
1 03690U 68097AH  13293.39496443  .00000421  00000-0  45547-3 0  1456
2 03690 062.3384 124.5003 0819830 052.0710 009.3450 12.86122802 95406
0 COSMOS 252 DEB *
1 03690U 68097AH  13294.71907498  .00000450  00000-0  48189-3 0  1468
2 03690 062.3384 121.2830 0819895 052.3299 020.0386 12.86123978 95575
0 COSMOS 252 DEB *
1 03690U 68097AH  13295.81171287  .00000476  00000-0  50550-3 0  1473
2 03690 062.3386 118.6280 0819893 052.5490 039.0042 12.86125377 95719
